{
    "links": {
        "self": "http://www.neowsapp.com/rest/v1/neo/3968752?api_key=iIulBulltgU6a56xZRHN4H3l9WmuAYTsLGpBGhQ2"
    },
    "id": "3968752",
    "neo_reference_id": "3968752",
    "name": "(2019 YY4)",
    "designation": "2019 YY4",
    "nasa_jpl_url": "http://ssd.jpl.nasa.gov/sbdb.cgi?sstr=3968752",
    "absolute_magnitude_h": 25.1,
    "estimated_diameter": {
        "kilometers": {
            "estimated_diameter_min": 0.0253837029,
            "estimated_diameter_max": 0.0567596853
        },
        "meters": {
            "estimated_diameter_min": 25.3837029364,
            "estimated_diameter_max": 56.7596852866
        },
        "miles": {
            "estimated_diameter_min": 0.0157726969,
            "estimated_diameter_max": 0.0352688224
        },
        "feet": {
            "estimated_diameter_min": 83.279867942,
            "estimated_diameter_max": 186.2194458756
        }
    },
    "is_potentially_hazardous_asteroid": false,
    "close_approach_data": [
        {
            "close_approach_date": "2019-12-25",
            "close_approach_date_full": "2019-Dec-25 09:38",
            "epoch_date_close_approach": 1577266680000,
            "relative_velocity": {
                "kilometers_per_second": "18.5725997951",
                "kilometers_per_hour": "66861.3592624043",
                "miles_per_hour": "41545.0484816867"
            },
            "miss_distance": {
                "astronomical": "0.0520967835",
                "lunar": "20.2656487815",
                "kilometers": "7793567.845451145",
                "miles": "4842698.500250001"
            },
            "orbiting_body": "Earth"
        }
    ],
    "orbital_data": {
        "orbit_id": "1",
        "orbit_determination_date": "2020-01-01 06:42:06",
        "first_observation_date": "2019-12-30",
        "last_observation_date": "2020-01-01",
        "data_arc_in_days": 2,
        "observations_used": 32,
        "orbit_uncertainty": "8",
        "minimum_orbit_intersection": ".0503965",
        "jupiter_tisserand_invariant": "3.832",
        "epoch_osculation": "2458849.5",
        "eccentricity": ".5645584393292609",
        "semi_major_axis": "1.769941365278759",
        "inclination": "22.09073179210505",
        "ascending_node_longitude": "279.2607975218287",
        "orbital_period": "860.0758350533038",
        "perihelion_distance": ".7707060303926816",
        "perihelion_argument": "103.4469875091744",
        "aphelion_distance": "2.769176700164836",
        "perihelion_time": "2458795.667217489024",
        "mean_anomaly": "22.5326662069866",
        "mean_motion": ".4185677417360398",
        "equinox": "J2000",
        "orbit_class": {
            "orbit_class_type": "APO",
            "orbit_class_description": "Near-Earth asteroid orbits which cross the Earth’s orbit similar to that of 1862 Apollo",
            "orbit_class_range": "a (semi-major axis) > 1.0 AU; q (perihelion) < 1.017 AU"
        }
    },
    "is_sentry_object": false
}